{
  "type": "FeatureCollection",
  "features": [
    {
      "type": "Feature",
      "properties": {
        "norad_id": 37532,
        "name": "COSMOS 2251 DEB",
        "group": "cosmos-2251-debris",
        "lat": 58.16768671171167,
        "lon": -124.10672517021351,
        "alt_km": 749.1377991125755,
        "timestamp": "2025-12-16T15:45:51.443632+00:00",
        "meta_object_name": "COSMOS 2251 DEB",
        "meta_object_id": "1993-036BNM",
        "meta_epoch": "2025-12-14T09:22:45.259968",
        "meta_mean_motion": 14.42410404,
        "meta_eccentricity": 0.00160101,
        "meta_inclination": 74.0496,
        "meta_ra_of_asc_node": 212.6604,
        "meta_arg_of_pericenter": 313.2255,
        "meta_mean_anomaly": 226.6563,
        "meta_ephemeris_type": 0,
        "meta_classification_type": "U",
        "meta_norad_cat_id": 37532,
        "meta_element_set_no": 999,
        "meta_rev_at_epoch": 84939,
        "meta_bstar": 0.00027461522,
        "meta_mean_motion_dot": 8.83e-06,
        "meta_mean_motion_ddot": 0,
        "tle_line1": "1 37532U 93036BNM 25348.39080162  .00000883  00000+0  27462-3 0  9994",
        "tle_line2": "2 37532  74.0496 212.6604 0016010 313.2255 226.6563 14.42410404849399"
      },
      "geometry": {
        "type": "Point",
        "coordinates": [
          -124.10672517021351,
          58.16768671171167
        ]
      }
    },
    {
      "type": "Feature",
      "properties": {
        "norad_id": 37533,
        "name": "COSMOS 2251 DEB",
        "group": "cosmos-2251-debris",
        "lat": 73.80215463982293,
        "lon": -95.60920972419558,
        "alt_km": 946.3140285523032,
        "timestamp": "2025-12-16T15:45:51.443642+00:00",
        "meta_object_name": "COSMOS 2251 DEB",
        "meta_object_id": "1993-036BNN",
        "meta_epoch": "2025-12-10T19:55:37.417152",
        "meta_mean_motion": 14.12152288,
        "meta_eccentricity": 0.01580439,
        "meta_inclination": 74.0697,
        "meta_ra_of_asc_node": 195.1706,
        "meta_arg_of_pericenter": 252.2523,
        "meta_mean_anomaly": 106.1316,
        "meta_ephemeris_type": 0,
        "meta_classification_type": "U",
        "meta_norad_cat_id": 37533,
        "meta_element_set_no": 999,
        "meta_rev_at_epoch": 62894,
        "meta_bstar": 0.0019185157,
        "meta_mean_motion_dot": 3.939e-05,
        "meta_mean_motion_ddot": 0,
        "tle_line1": "1 37533U 93036BNN 25344.83029418  .00003939  00000+0  19185-2 0  9994",
        "tle_line2": "2 37533  74.0697 195.1706 0158043 252.2523 106.1316 14.12152288628948"
      },
      "geometry": {
        "type": "Point",
        "coordinates": [
          -95.60920972419558,
          73.80215463982293
        ]
      }
    },
    {
      "type": "Feature",
      "properties": {
        "norad_id": 37535,
        "name": "COSMOS 2251 DEB",
        "group": "cosmos-2251-debris",
        "lat": -54.40713812568322,
        "lon": 42.44556232223652,
        "alt_km": 707.3870321235418,
        "timestamp": "2025-12-16T15:45:51.443652+00:00",
        "meta_object_name": "COSMOS 2251 DEB",
        "meta_object_id": "1993-036BNQ",
        "meta_epoch": "2025-12-15T07:25:57.216000",
        "meta_mean_motion": 14.58477128,
        "meta_eccentricity": 0.00276728,
        "meta_inclination": 74.0243,
        "meta_ra_of_asc_node": 68.6045,
        "meta_arg_of_pericenter": 207.2825,
        "meta_mean_anomaly": 224.3264,
        "meta_ephemeris_type": 0,
        "meta_classification_type": "U",
        "meta_norad_cat_id": 37535,
        "meta_element_set_no": 999,
        "meta_rev_at_epoch": 85362,
        "meta_bstar": 0.00052687206,
        "meta_mean_motion_dot": 2.43e-05,
        "meta_mean_motion_ddot": 0,
        "tle_line1": "1 37535U 93036BNQ 25349.30969000  .00002430  00000+0  52687-3 0  9993",
        "tle_line2": "2 37535  74.0243  68.6045 0027672 207.2825 224.3264 14.58477128853628"
      },
      "geometry": {
        "type": "Point",
        "coordinates": [
          42.44556232223652,
          -54.40713812568322
        ]
      }
    },
    {
      "type": "Feature",
      "properties": {
        "norad_id": 37537,
        "name": "COSMOS 2251 DEB",
        "group": "cosmos-2251-debris",
        "lat": -16.953400632863158,
        "lon": 82.92435499785671,
        "alt_km": 805.0595439736862,
        "timestamp": "2025-12-16T15:45:51.443662+00:00",
        "meta_object_name": "COSMOS 2251 DEB",
        "meta_object_id": "1993-036BNS",
        "meta_epoch": "2025-12-11T11:15:11.696832",
        "meta_mean_motion": 14.37489039,
        "meta_eccentricity": 0.00502138,
        "meta_inclination": 74.0122,
        "meta_ra_of_asc_node": 267.468,
        "meta_arg_of_pericenter": 48.0201,
        "meta_mean_anomaly": 312.5213,
        "meta_ephemeris_type": 0,
        "meta_classification_type": "U",
        "meta_norad_cat_id": 37537,
        "meta_element_set_no": 999,
        "meta_rev_at_epoch": 85015,
        "meta_bstar": 0.0003879169,
        "meta_mean_motion_dot": 1.152e-05,
        "meta_mean_motion_ddot": 0,
        "tle_line1": "1 37537U 93036BNS 25345.46888538  .00001152  00000+0  38792-3 0  9995",
        "tle_line2": "2 37537  74.0122 267.4680 0050213  48.0201 312.5213 14.37489039850156"
      },
      "geometry": {
        "type": "Point",
        "coordinates": [
          82.92435499785671,
          -16.953400632863158
        ]
      }
    },
    {
      "type": "Feature",
      "properties": {
        "norad_id": 37546,
        "name": "COSMOS 2251 DEB",
        "group": "cosmos-2251-debris",
        "lat": 15.763094309510722,
        "lon": -94.36166042027817,
        "alt_km": 625.7516779535454,
        "timestamp": "2025-12-16T15:45:51.443672+00:00",
        "meta_object_name": "COSMOS 2251 DEB",
        "meta_object_id": "1993-036BPB",
        "meta_epoch": "2025-12-13T15:40:44.550624",
        "meta_mean_motion": 14.80580134,
        "meta_eccentricity": 0.00056627,
        "meta_inclination": 74.0221,
        "meta_ra_of_asc_node": 96.2019,
        "meta_arg_of_pericenter": 105.6347,
        "meta_mean_anomaly": 254.5455,
        "meta_ephemeris_type": 0,
        "meta_classification_type": "U",
        "meta_norad_cat_id": 37546,
        "meta_element_set_no": 999,
        "meta_rev_at_epoch": 65901,
        "meta_bstar": 0.0029558541,
        "meta_mean_motion_dot": 0.00022724,
        "meta_mean_motion_ddot": 0,
        "tle_line1": "1 37546U 93036BPB 25347.65329341  .00022724  00000+0  29559-2 0  9998",
        "tle_line2": "2 37546  74.0221  96.2019 0005662 105.6347 254.5455 14.80580134659010"
      },
      "geometry": {
        "type": "Point",
        "coordinates": [
          -94.36166042027817,
          15.763094309510722
        ]
      }
    },
    {
      "type": "Feature",
      "properties": {
        "norad_id": 37959,
        "name": "COSMOS 2251 DEB",
        "group": "cosmos-2251-debris",
        "lat": 38.695324476218666,
        "lon": 62.75714407893884,
        "alt_km": 731.3864738316934,
        "timestamp": "2025-12-16T15:45:51.443682+00:00",
        "meta_object_name": "COSMOS 2251 DEB",
        "meta_object_id": "1993-036BPJ",
        "meta_epoch": "2025-12-15T22:16:29.764992",
        "meta_mean_motion": 14.58167023,
        "meta_eccentricity": 0.00576365,
        "meta_inclination": 74.0115,
        "meta_ra_of_asc_node": 50.8678,
        "meta_arg_of_pericenter": 193.0085,
        "meta_mean_anomaly": 344.1701,
        "meta_ephemeris_type": 0,
        "meta_classification_type": "U",
        "meta_norad_cat_id": 37959,
        "meta_element_set_no": 999,
        "meta_rev_at_epoch": 80173,
        "meta_bstar": 0.00045348715,
        "meta_mean_motion_dot": 2.109e-05,
        "meta_mean_motion_ddot": 0,
        "tle_line1": "1 37959U 93036BPJ 25349.92812228  .00002109  00000+0  45349-3 0  9990",
        "tle_line2": "2 37959  74.0115  50.8678 0057636 193.0085 344.1701 14.58167023801736"
      },
      "geometry": {
        "type": "Point",
        "coordinates": [
          62.75714407893884,
          38.695324476218666
        ]
      }
    },
    {
      "type": "Feature",
      "properties": {
        "norad_id": 37960,
        "name": "COSMOS 2251 DEB",
        "group": "cosmos-2251-debris",
        "lat": -73.51839470981231,
        "lon": 104.99282229283585,
        "alt_km": 827.3003035016245,
        "timestamp": "2025-12-16T15:45:51.443692+00:00",
        "meta_object_name": "COSMOS 2251 DEB",
        "meta_object_id": "1993-036BPK",
        "meta_epoch": "2025-12-14T06:11:46.389120",
        "meta_mean_motion": 14.07861121,
        "meta_eccentricity": 0.02486852,
        "meta_inclination": 74.058,
        "meta_ra_of_asc_node": 184.231,
        "meta_arg_of_pericenter": 202.5017,
        "meta_mean_anomaly": 156.5067,
        "meta_ephemeris_type": 0,
        "meta_classification_type": "U",
        "meta_norad_cat_id": 37960,
        "meta_element_set_no": 999,
        "meta_rev_at_epoch": 77427,
        "meta_bstar": 0.00090092119,
        "meta_mean_motion_dot": 2.003e-05,
        "meta_mean_motion_ddot": 0,
        "tle_line1": "1 37960U 93036BPK 25348.25817580  .00002003  00000+0  90092-3 0  9991",
        "tle_line2": "2 37960  74.0580 184.2310 0248685 202.5017 156.5067 14.07861121774278"
      },
      "geometry": {
        "type": "Point",
        "coordinates": [
          104.99282229283585,
          -73.51839470981231
        ]
      }
    }
  ]
}